STARLINK-4462           
1 53781U 22111J   23304.34677723  .00000457  00000+0  46832-4 0  9994
2 53781  53.2158 176.3489 0001442  97.9350 262.1806 15.08838704 63819
STARLINK-4679           
1 53782U 22111K   23304.35415085  .00006482  00000+0  42502-3 0  9990
2 53782  53.2158 176.3948 0001475  79.2824 280.8334 15.08835534 63816
STARLINK-4536           
1 53783U 22111L   23304.33940986  .00005421  00000+0  35837-3 0  9997
2 53783  53.2161 176.3010 0001285  95.0242 265.0897 15.08843538 63812
STARLINK-4687           
1 53784U 22111M   23304.61542676  .00010974  00000+0  70643-3 0  9996
2 53784  53.2151 175.1836 0001440  79.7983 280.3171 15.08843242 63850
STARLINK-4631           
1 53786U 22111P   23304.31182682 -.00000478  00000+0 -11939-4 0  9996
2 53786  53.2160 166.2674 0001643  93.1019 267.0161 15.08834564 63957
STARLINK-4743           
1 53787U 22111Q   23303.93460083  .00001617  00000+0  11966-3 0  9991
2 53787  53.2167 178.0384 0001519  87.5086 272.6080 15.08839301 62941
STARLINK-4666           
1 53789U 22111S   23304.85090426  .00003201  00000+0  21910-3 0  9996
2 53789  53.2164 173.8085 0001394  90.3841 269.7311 15.08845562 63089
STARLINK-4734           
1 53790U 22111T   23304.86564578  .00004707  00000+0  31360-3 0  9995
2 53790  53.2168 173.8991 0001331 105.9217 254.1922 15.08840317 63081
STARLINK-4739           
1 53792U 22111V   23304.85827628  .00001587  00000+0  11779-3 0  9999
2 53792  53.2168 173.8528 0001794 105.9092 254.2098 15.08841784 63087
STARLINK-4728           
1 53793U 22111W   23304.85554852  .00004155  00000+0  27893-3 0  9994
2 53793  53.2171 173.8371 0001676  89.5928 270.5256 15.08847877 63088
STARLINK-4730           
1 53794U 22111X   23304.86294205  .00020305  00000+0  12898-2 0  9992
2 53794  53.2163 173.8826 0001188  90.7166 269.3962 15.08851475 63080
STARLINK-4742           
1 53795U 22111Y   23304.38354448  .00012589  00000+0  80765-3 0  9990
2 53795  53.2138 175.8689 0001469  79.0939 281.0218 15.08840465 63815
STARLINK-4721           
1 53796U 22111Z   23304.85273679  .00000110  00000+0  25017-4 0  9996
2 53796  53.2169 153.7453 0001392  84.3545 275.7606 15.08834731 63440
STARLINK-4723           
1 53797U 22111AA  23304.90240259  .00002729  00000+0  18944-3 0  9999
2 53797  53.2156 173.4179 0001420  85.5068 274.6087 15.08851187 63092
