[
  {
    "OBJECT_NAME": "STARLINK-4462",
    "OBJECT_ID": "2022-111J",
    "EPOCH": "2023-10-31T08:19:21.552672",
    "MEAN_MOTION": 15.08838704,
    "ECCENTRICITY": 0.0001442,
    "INCLINATION": 53.2158,
    "RA_OF_ASC_NODE": 176.3489,
    "ARG_OF_PERICENTER": 97.935,
    "MEAN_ANOMALY": 262.1806,
    "EPHEMERIS_TYPE": 0,
    "CLASSIFICATION_TYPE": "U",
    "NORAD_CAT_ID": 53781,
    "ELEMENT_SET_NO": 999,
    "REV_AT_EPOCH": 6381,
    "BSTAR": 4.6832e-5,
    "MEAN_MOTION_DOT": 4.57e-6,
    "MEAN_MOTION_DDOT": 0
  },
  {
    "OBJECT_NAME": "STARLINK-4679",
    "OBJECT_ID": "2022-111K",
    "EPOCH": "2023-10-31T08:29:58.633440",
    "MEAN_MOTION": 15.08835534,
    "ECCENTRICITY": 0.0001475,
    "INCLINATION": 53.2158,
    "RA_OF_ASC_NODE": 176.3948,
    "ARG_OF_PERICENTER": 79.2824,
    "MEAN_ANOMALY": 280.8334,
    "EPHEMERIS_TYPE": 0,
    "CLASSIFICATION_TYPE": "U",
    "NORAD_CAT_ID": 53782,
    "ELEMENT_SET_NO": 999,
    "REV_AT_EPOCH": 6381,
    "BSTAR": 0.00042502,
    "MEAN_MOTION_DOT": 6.482e-5,
    "MEAN_MOTION_DDOT": 0
  },
  {
    "OBJECT_NAME": "STARLINK-4536",
    "OBJECT_ID": "2022-111L",
    "EPOCH": "2023-10-31T08:08:45.011904",
    "MEAN_MOTION": 15.08843538,
    "ECCENTRICITY": 0.0001285,
    "INCLINATION": 53.2161,
    "RA_OF_ASC_NODE": 176.301,
    "ARG_OF_PERICENTER": 95.0242,
    "MEAN_ANOMALY": 265.0897,
    "EPHEMERIS_TYPE": 0,
    "CLASSIFICATION_TYPE": "U",
    "NORAD_CAT_ID": 53783,
    "ELEMENT_SET_NO": 999,
    "REV_AT_EPOCH": 6381,
    "BSTAR": 0.00035837,
    "MEAN_MOTION_DOT": 5.421e-5,
    "MEAN_MOTION_DDOT": 0
  },
  {
    "OBJECT_NAME": "STARLINK-4687",
    "OBJECT_ID": "2022-111M",
    "EPOCH": "2023-10-31T14:46:12.872064",
    "MEAN_MOTION": 15.08843242,
    "ECCENTRICITY": 0.000144,
    "INCLINATION": 53.2151,
    "RA_OF_ASC_NODE": 175.1836,
    "ARG_OF_PERICENTER": 79.7983,
    "MEAN_ANOMALY": 280.3171,
    "EPHEMERIS_TYPE": 0,
    "CLASSIFICATION_TYPE": "U",
    "NORAD_CAT_ID": 53784,
    "ELEMENT_SET_NO": 999,
    "REV_AT_EPOCH": 6385,
    "BSTAR": 0.00070643,
    "MEAN_MOTION_DOT": 0.00010974,
    "MEAN_MOTION_DDOT": 0
  },
  {
    "OBJECT_NAME": "STARLINK-4631",
    "OBJECT_ID": "2022-111P",
    "EPOCH": "2023-10-31T07:29:01.837248",
    "MEAN_MOTION": 15.08834564,
    "ECCENTRICITY": 0.0001643,
    "INCLINATION": 53.216,
    "RA_OF_ASC_NODE": 166.2674,
    "ARG_OF_PERICENTER": 93.1019,
    "MEAN_ANOMALY": 267.0161,
    "EPHEMERIS_TYPE": 0,
    "CLASSIFICATION_TYPE": "U",
    "NORAD_CAT_ID": 53786,
    "ELEMENT_SET_NO": 999,
    "REV_AT_EPOCH": 6395,
    "BSTAR": -1.1939e-5,
    "MEAN_MOTION_DOT": -4.78e-6,
    "MEAN_MOTION_DDOT": 0
  },
  {
    "OBJECT_NAME": "STARLINK-4743",
    "OBJECT_ID": "2022-111Q",
    "EPOCH": "2023-10-30T22:25:49.511712",
    "MEAN_MOTION": 15.08839301,
    "ECCENTRICITY": 0.0001519,
    "INCLINATION": 53.2167,
    "RA_OF_ASC_NODE": 178.0384,
    "ARG_OF_PERICENTER": 87.5086,
    "MEAN_ANOMALY": 272.608,
    "EPHEMERIS_TYPE": 0,
    "CLASSIFICATION_TYPE": "U",
    "NORAD_CAT_ID": 53787,
    "ELEMENT_SET_NO": 999,
    "REV_AT_EPOCH": 6294,
    "BSTAR": 0.00011966,
    "MEAN_MOTION_DOT": 1.617e-5,
    "MEAN_MOTION_DDOT": 0
  },
  {
    "OBJECT_NAME": "STARLINK-4666",
    "OBJECT_ID": "2022-111S",
    "EPOCH": "2023-10-31T20:25:18.128064",
    "MEAN_MOTION": 15.08845562,
    "ECCENTRICITY": 0.0001394,
    "INCLINATION": 53.2164,
    "RA_OF_ASC_NODE": 173.8085,
    "ARG_OF_PERICENTER": 90.3841,
    "MEAN_ANOMALY": 269.7311,
    "EPHEMERIS_TYPE": 0,
    "CLASSIFICATION_TYPE": "U",
    "NORAD_CAT_ID": 53789,
    "ELEMENT_SET_NO": 999,
    "REV_AT_EPOCH": 6308,
    "BSTAR": 0.0002191,
    "MEAN_MOTION_DOT": 3.201e-5,
    "MEAN_MOTION_DDOT": 0
  },
  {
    "OBJECT_NAME": "STARLINK-4734",
    "OBJECT_ID": "2022-111T",
    "EPOCH": "2023-10-31T20:46:31.795392",
    "MEAN_MOTION": 15.08840317,
    "ECCENTRICITY": 0.0001331,
    "INCLINATION": 53.2168,
    "RA_OF_ASC_NODE": 173.8991,
    "ARG_OF_PERICENTER": 105.9217,
    "MEAN_ANOMALY": 254.1922,
    "EPHEMERIS_TYPE": 0,
    "CLASSIFICATION_TYPE": "U",
    "NORAD_CAT_ID": 53790,
    "ELEMENT_SET_NO": 999,
    "REV_AT_EPOCH": 6308,
    "BSTAR": 0.0003136,
    "MEAN_MOTION_DOT": 4.707e-5,
    "MEAN_MOTION_DDOT": 0
  },
  {
    "OBJECT_NAME": "STARLINK-4739",
    "OBJECT_ID": "2022-111V",
    "EPOCH": "2023-10-31T20:35:55.070592",
    "MEAN_MOTION": 15.08841784,
    "ECCENTRICITY": 0.0001794,
    "INCLINATION": 53.2168,
    "RA_OF_ASC_NODE": 173.8528,
    "ARG_OF_PERICENTER": 105.9092,
    "MEAN_ANOMALY": 254.2098,
    "EPHEMERIS_TYPE": 0,
    "CLASSIFICATION_TYPE": "U",
    "NORAD_CAT_ID": 53792,
    "ELEMENT_SET_NO": 999,
    "REV_AT_EPOCH": 6308,
    "BSTAR": 0.00011779,
    "MEAN_MOTION_DOT": 1.587e-5,
    "MEAN_MOTION_DDOT": 0
  },
  {
    "OBJECT_NAME": "STARLINK-4728",
    "OBJECT_ID": "2022-111W",
    "EPOCH": "2023-10-31T20:31:59.392128",
    "MEAN_MOTION": 15.08847877,
    "ECCENTRICITY": 0.0001676,
    "INCLINATION": 53.2171,
    "RA_OF_ASC_NODE": 173.8371,
    "ARG_OF_PERICENTER": 89.5928,
    "MEAN_ANOMALY": 270.5256,
    "EPHEMERIS_TYPE": 0,
    "CLASSIFICATION_TYPE": "U",
    "NORAD_CAT_ID": 53793,
    "ELEMENT_SET_NO": 999,
    "REV_AT_EPOCH": 6308,
    "BSTAR": 0.00027893,
    "MEAN_MOTION_DOT": 4.155e-5,
    "MEAN_MOTION_DDOT": 0
  },
  {
    "OBJECT_NAME": "STARLINK-4730",
    "OBJECT_ID": "2022-111X",
    "EPOCH": "2023-10-31T20:42:38.193120",
    "MEAN_MOTION": 15.08851475,
    "ECCENTRICITY": 0.0001188,
    "INCLINATION": 53.2163,
    "RA_OF_ASC_NODE": 173.8826,
    "ARG_OF_PERICENTER": 90.7166,
    "MEAN_ANOMALY": 269.3962,
    "EPHEMERIS_TYPE": 0,
    "CLASSIFICATION_TYPE": "U",
    "NORAD_CAT_ID": 53794,
    "ELEMENT_SET_NO": 999,
    "REV_AT_EPOCH": 6308,
    "BSTAR": 0.0012898,
    "MEAN_MOTION_DOT": 0.00020305,
    "MEAN_MOTION_DDOT": 0
  },
  {
    "OBJECT_NAME": "STARLINK-4742",
    "OBJECT_ID": "2022-111Y",
    "EPOCH": "2023-10-31T09:12:18.243072",
    "MEAN_MOTION": 15.08840465,
    "ECCENTRICITY": 0.0001469,
    "INCLINATION": 53.2138,
    "RA_OF_ASC_NODE": 175.8689,
    "ARG_OF_PERICENTER": 79.0939,
    "MEAN_ANOMALY": 281.0218,
    "EPHEMERIS_TYPE": 0,
    "CLASSIFICATION_TYPE": "U",
    "NORAD_CAT_ID": 53795,
    "ELEMENT_SET_NO": 999,
    "REV_AT_EPOCH": 6381,
    "BSTAR": 0.00080765,
    "MEAN_MOTION_DOT": 0.00012589,
    "MEAN_MOTION_DDOT": 0
  },
  {
    "OBJECT_NAME": "STARLINK-4721",
    "OBJECT_ID": "2022-111Z",
    "EPOCH": "2023-10-31T20:27:56.458656",
    "MEAN_MOTION": 15.08834731,
    "ECCENTRICITY": 0.0001392,
    "INCLINATION": 53.2169,
    "RA_OF_ASC_NODE": 153.7453,
    "ARG_OF_PERICENTER": 84.3545,
    "MEAN_ANOMALY": 275.7606,
    "EPHEMERIS_TYPE": 0,
    "CLASSIFICATION_TYPE": "U",
    "NORAD_CAT_ID": 53796,
    "ELEMENT_SET_NO": 999,
    "REV_AT_EPOCH": 6344,
    "BSTAR": 2.5017e-5,
    "MEAN_MOTION_DOT": 1.1e-6,
    "MEAN_MOTION_DDOT": 0
  },
  {
    "OBJECT_NAME": "STARLINK-4723",
    "OBJECT_ID": "2022-111AA",
    "EPOCH": "2023-10-31T21:39:27.583776",
    "MEAN_MOTION": 15.08851187,
    "ECCENTRICITY": 0.000142,
    "INCLINATION": 53.2156,
    "RA_OF_ASC_NODE": 173.4179,
    "ARG_OF_PERICENTER": 85.5068,
    "MEAN_ANOMALY": 274.6087,
    "EPHEMERIS_TYPE": 0,
    "CLASSIFICATION_TYPE": "U",
    "NORAD_CAT_ID": 53797,
    "ELEMENT_SET_NO": 999,
    "REV_AT_EPOCH": 6309,
    "BSTAR": 0.00018944,
    "MEAN_MOTION_DOT": 2.729e-5,
    "MEAN_MOTION_DDOT": 0
  }
]
